FLOCK 4G-17             
1 62681U 25009CA  26186.18723081  .00019210  00000+0  66442-3 0  9999
2 62681  97.3917 267.4644 0003318 259.1424 100.9443 15.29933801139304
FLOCK 4G-33             
1 62685U 25009CE  26186.15469292  .00010461  00000+0  41286-3 0  9999
2 62685  97.3939 265.8210 0003983 259.5793 100.4997 15.25718139 81546
FLOCK 4H-1              
1 66704U 25276AQ  26186.14490590  .00011183  00000+0  51056-3 0  9993
2 66704  97.4169 259.5483 0000966 207.7241 152.3943 15.20761721 33163
FLOCK 4H-3              
1 66706U 25276AS  26186.17042621  .00010517  00000+0  48886-3 0  9993
2 66706  97.4233 259.5474 0002471 307.9795  52.1217 15.20156304 33152
FLOCK 4H-4              
1 66707U 25276AT  26186.13928155  .00012208  00000+0  57038-3 0  9993
2 66707  97.4217 259.3892 0003152 307.9719  52.1231 15.19939845 33142
FLOCK 4H-5              
1 66708U 25276AU  26186.20331679  .00011390  00000+0  51906-3 0  9990
2 66708  97.4167 259.6260 0000870 127.3130 232.8185 15.20819833 33178
FLOCK 4H-6              
1 66709U 25276AV  26186.18150886  .00011880  00000+0  54597-3 0  9990
2 66709  97.4218 259.6462 0001687 258.0243 102.0803 15.20519761 33165
FLOCK 4H-7              
1 66710U 25276AW  26186.16180162  .00011507  00000+0  53257-3 0  9998
2 66710  97.4175 259.3932 0001527   6.2917 353.8337 15.20285533 33156
FLOCK 4H-8              
1 66711U 25276AX  26186.15340768  .00012937  00000+0  59632-3 0  9999
2 66711  97.4215 259.5277 0002258 330.2933  29.8174 15.20394962 33152
FLOCK 4H-9              
1 66712U 25276AY  26186.16918319  .00011708  00000+0  53543-3 0  9994
2 66712  97.4204 259.6345 0001797 270.8119  89.2911 15.20691854 33160
FLOCK 4H-10             
1 66713U 25276AZ  26186.19002345  .00011868  00000+0  55255-3 0  9990
2 66713  97.4179 259.3773 0002967 310.1847  49.9128 15.20069874 33153
FLOCK 4H-11             
1 66714U 25276BA  26186.16988701  .00025134  00000+0  10649-2 0  9995
2 66714  97.4187 259.9022 0001312 320.9174  39.1968 15.23137216 33186
FLOCK 4H-12             
1 66715U 25276BB  26186.15641382  .00012812  00000+0  58507-3 0  9991
2 66715  97.4177 259.5609 0000849 225.5878 134.5288 15.20719283 33472
FLOCK 4H-13             
1 66716U 25276BC  26186.19348518  .00007726  00000+0  35322-3 0  9999
2 66716  97.4214 259.7649 0001161 151.7803 208.3496 15.20823362 33179
FLOCK 4H-14             
1 66717U 25276BD  26186.15689346  .00012162  00000+0  54673-3 0  9993
2 66717  97.4195 259.7711 0001097 150.1643 209.9655 15.21272057 32422
